0 BREEZE-M DEB (TANK)
1 37871U 11064E   13283.32092429  .00000885  00000-0  47734-3 0  3832
2 37871 052.5057 215.5536 5787910 123.9248 012.3071 04.29180919 30106
0 BREEZE-M DEB (TANK)
1 37871U 11064E   13286.10248174  .00000656  00000-0  44448-3 0  3847
2 37871 052.5052 214.0229 5787302 124.9929 349.9622 04.29184606 30227
0 BREEZE-M DEB (TANK)
1 37871U 11064E   13289.13308535  .00000580  00000-0  43907-3 0  3857
2 37871 052.5051 212.3558 5786617 126.1551 352.4540 04.29191747 30351
0 BREEZE-M DEB (TANK)
1 37871U 11064E   13291.23975823  .00000723  00000-0  48009-3 0  3869
2 37871 052.5052 211.1972 5786165 126.9629 007.4593 04.29195836 30449
0 BREEZE-M DEB (TANK)
1 37871U 11064E   13293.78775583  .00001009  00000-0  59314-3 0  3872
2 37871 052.5050 209.7967 5785566 127.9389 344.4038 04.29200897 30556
0 BREEZE-M DEB (TANK)
1 37871U 11064E   13296.12347763  .00000998  00000-0  58733-3 0  3889
2 37871 052.5050 208.5128 5785015 128.8338 353.3945 04.29208585 30654
